start=new Date('2021-09-27T00:00:00.000Z').valueOf();
sats=[{"REF_FRAME":"TEME","LAUNCH_DATE":"2020-10-24","MEAN_MOTION_DDOT":"0.0000000000000","MEAN_ELEMENT_THEORY":"SGP4","MEAN_MOTION":"15.06397515","ARG_OF_PERICENTER":"96.3375","REV_AT_EPOCH":"5157","GP_ID":"185581865","SITE":"AFETR","FILE":"3129566","APOAPSIS":"548.523","RA_OF_ASC_NODE":"70.5430","OBJECT_NAME":"STARLINK-1936","TIME_SYSTEM":"UTC","ECCENTRICITY":"0.00018800","PERIAPSIS":"545.919","DECAY_DATE":null,"OBJECT_TYPE":"PAYLOAD","SEMIMAJOR_AXIS":"6925.356","INCLINATION":"53.0544","MEAN_ANOMALY":"263.7828","COUNTRY_CODE":"US","RCS_SIZE":"LARGE","CENTER_NAME":"EARTH","OBJECT_ID":"2020-074AK","BSTAR":"0.00013241000000","ELEMENT_SET_NO":"999","MEAN_MOTION_DOT":"0.00001691","TLE_LINE1":"1 46772U 20074AK  21269.91065349  .00001691  00000-0  13241-3 0  9997","EPOCH":"2021-09-26T21:51:20.461536","NORAD_CAT_ID":"46772","CLASSIFICATION_TYPE":"U","TLE_LINE2":"2 46772  53.0544  70.5430 0001880  96.3375 263.7828 15.06397515 51574","EPHEMERIS_TYPE":"0","PERIOD":"95.592"},{"PERIOD":"95.513","CLASSIFICATION_TYPE":"U","TLE_LINE2":"2 46774  53.0536  70.5699 0001998  96.0939 264.0278 15.07652175 51566","EPHEMERIS_TYPE":"0","NORAD_CAT_ID":"46774","EPOCH":"2021-09-26T17:21:32.334624","TLE_LINE1":"1 46774U 20074AM  21269.72329091  .00007302  00000-0  49185-3 0  9996","MEAN_MOTION_DOT":"0.00007302","ELEMENT_SET_NO":"999","OBJECT_ID":"2020-074AM","BSTAR":"0.00049185000000","CENTER_NAME":"EARTH","RCS_SIZE":"LARGE","COUNTRY_CODE":"US","MEAN_ANOMALY":"264.0278","INCLINATION":"53.0536","SEMIMAJOR_AXIS":"6921.513","OBJECT_TYPE":"PAYLOAD","DECAY_DATE":null,"PERIAPSIS":"541.996","ECCENTRICITY":"0.00019980","OBJECT_NAME":"STARLINK-1939","TIME_SYSTEM":"UTC","RA_OF_ASC_NODE":"70.5699","APOAPSIS":"544.761","SITE":"AFETR","FILE":"3129566","GP_ID":"185582117","REV_AT_EPOCH":"5156","ARG_OF_PERICENTER":"96.0939","MEAN_MOTION":"15.07652175","MEAN_ELEMENT_THEORY":"SGP4","MEAN_MOTION_DDOT":"0.0000000000000","LAUNCH_DATE":"2020-10-24","REF_FRAME":"TEME"},{"TIME_SYSTEM":"UTC","OBJECT_NAME":"STARLINK-1945","ECCENTRICITY":"0.00018780","PERIAPSIS":"545.911","DECAY_DATE":null,"SEMIMAJOR_AXIS":"6925.347","OBJECT_TYPE":"PAYLOAD","REV_AT_EPOCH":"5154","GP_ID":"185582867","FILE":"3129566","SITE":"AFETR","APOAPSIS":"548.512","RA_OF_ASC_NODE":"71.2642","ELEMENT_SET_NO":"999","MEAN_MOTION_DOT":"0.00000008","TLE_LINE1":"1 46775U 20074AN  21269.74846772  .00000008  00000-0  19458-4 0  9996","EPOCH":"2021-09-26T17:57:47.611008","NORAD_CAT_ID":"46775","TLE_LINE2":"2 46775  53.0556  71.2642 0001878  91.2009 268.9195 15.06400570 51545","EPHEMERIS_TYPE":"0","CLASSIFICATION_TYPE":"U","PERIOD":"95.592","INCLINATION":"53.0556","COUNTRY_CODE":"US","MEAN_ANOMALY":"268.9195","RCS_SIZE":"LARGE","CENTER_NAME":"EARTH","OBJECT_ID":"2020-074AN","BSTAR":"0.00001945800000","MEAN_MOTION_DDOT":"0.0000000000000","MEAN_MOTION":"15.06400570","MEAN_ELEMENT_THEORY":"SGP4","REF_FRAME":"TEME","LAUNCH_DATE":"2020-10-24","ARG_OF_PERICENTER":"91.2009"},{"OBJECT_ID":"2020-074AP","BSTAR":"0.00011915000000","COUNTRY_CODE":"US","MEAN_ANOMALY":"263.1717","RCS_SIZE":"LARGE","CENTER_NAME":"EARTH","INCLINATION":"53.0548","TLE_LINE2":"2 46776  53.0548  71.3614 0001808  96.9477 263.1717 15.06396494 51547","CLASSIFICATION_TYPE":"U","EPHEMERIS_TYPE":"0","PERIOD":"95.592","EPOCH":"2021-09-26T17:25:57.170496","NORAD_CAT_ID":"46776","TLE_LINE1":"1 46776U 20074AP  21269.72635614  .00001493  00000-0  11915-3 0  9994","ELEMENT_SET_NO":"999","MEAN_MOTION_DOT":"0.00001493","APOAPSIS":"548.476","RA_OF_ASC_NODE":"71.3614","SITE":"AFETR","FILE":"3129566","REV_AT_EPOCH":"5154","GP_ID":"185581116","DECAY_DATE":null,"OBJECT_TYPE":"PAYLOAD","SEMIMAJOR_AXIS":"6925.359","PERIAPSIS":"545.972","ECCENTRICITY":"0.00018080","OBJECT_NAME":"STARLINK-1946","TIME_SYSTEM":"UTC","ARG_OF_PERICENTER":"96.9477","LAUNCH_DATE":"2020-10-24","REF_FRAME":"TEME","MEAN_ELEMENT_THEORY":"SGP4","MEAN_MOTION":"15.06396494","MEAN_MOTION_DDOT":"0.0000000000000"},{"INCLINATION":"53.0465","BSTAR":"0.00245520000000","OBJECT_ID":"2020-074AQ","CENTER_NAME":"EARTH","RCS_SIZE":"LARGE","MEAN_ANOMALY":"47.7638","COUNTRY_CODE":"US","TLE_LINE1":"1 46777U 20074AQ  21269.58414770  .01035477  50787-3  24552-2 0  9997","MEAN_MOTION_DOT":"0.01035477","ELEMENT_SET_NO":"999","PERIOD":"90.217","TLE_LINE2":"2 46777  53.0465  15.3618 0009171 312.2611  47.7638 15.96151025 52326","EPHEMERIS_TYPE":"0","CLASSIFICATION_TYPE":"U","NORAD_CAT_ID":"46777","EPOCH":"2021-09-26T14:01:10.361280","GP_ID":"185581366","REV_AT_EPOCH":"5232","RA_OF_ASC_NODE":"15.3618","APOAPSIS":"291.222","SITE":"AFETR","FILE":"3129566","ECCENTRICITY":"0.00091710","OBJECT_NAME":"STARLINK-1949","TIME_SYSTEM":"UTC","SEMIMAJOR_AXIS":"6663.246","OBJECT_TYPE":"PAYLOAD","DECAY_DATE":null,"PERIAPSIS":"279.000","ARG_OF_PERICENTER":"312.2611","LAUNCH_DATE":"2020-10-24","REF_FRAME":"TEME","MEAN_MOTION_DDOT":"0.0005078700000","MEAN_MOTION":"15.96151025","MEAN_ELEMENT_THEORY":"SGP4"},{"EPOCH":"2021-09-26T16:12:18.693504","NORAD_CAT_ID":"46779","TLE_LINE2":"2 46779  53.0560  46.5857 0001533  98.5734 261.5428 15.06392665 51880","CLASSIFICATION_TYPE":"U","EPHEMERIS_TYPE":"0","PERIOD":"95.593","ELEMENT_SET_NO":"999","MEAN_MOTION_DOT":"-0.00000049","TLE_LINE1":"1 46779U 20074AS  21269.67521636 -.00000049  00000-0  15640-4 0  9996","MEAN_ANOMALY":"261.5428","COUNTRY_CODE":"US","RCS_SIZE":"LARGE","CENTER_NAME":"EARTH","BSTAR":"0.00001564000000","OBJECT_ID":"2020-074AS","INCLINATION":"53.0560","PERIAPSIS":"546.174","DECAY_DATE":null,"OBJECT_TYPE":"PAYLOAD","SEMIMAJOR_AXIS":"6925.371","TIME_SYSTEM":"UTC","OBJECT_NAME":"STARLINK-1798","ECCENTRICITY":"0.00015330","SITE":"AFETR","FILE":"3129566","APOAPSIS":"548.298","RA_OF_ASC_NODE":"46.5857","REV_AT_EPOCH":"5188","GP_ID":"185582617","ARG_OF_PERICENTER":"98.5734","MEAN_ELEMENT_THEORY":"SGP4","MEAN_MOTION":"15.06392665","MEAN_MOTION_DDOT":"0.0000000000000","REF_FRAME":"TEME","LAUNCH_DATE":"2020-10-24"},{"ARG_OF_PERICENTER":"97.8762","MEAN_MOTION":"15.06398783","MEAN_ELEMENT_THEORY":"SGP4","MEAN_MOTION_DDOT":"0.0000000000000","REF_FRAME":"TEME","LAUNCH_DATE":"2020-10-24","NORAD_CAT_ID":"46780","EPOCH":"2021-09-26T15:56:22.728480","PERIOD":"95.592","EPHEMERIS_TYPE":"0","TLE_LINE2":"2 46780  53.0563  46.6366 0001646  97.8762 262.2414 15.06398783 51889","CLASSIFICATION_TYPE":"U","MEAN_MOTION_DOT":"-0.00000351","ELEMENT_SET_NO":"999","TLE_LINE1":"1 46780U 20074AT  21269.66415195 -.00000351  00000-0 -46440-5 0  9999","RCS_SIZE":"LARGE","CENTER_NAME":"EARTH","MEAN_ANOMALY":"262.2414","COUNTRY_CODE":"US","OBJECT_ID":"2020-074AT","BSTAR":"-0.00000464400000","INCLINATION":"53.0563","PERIAPSIS":"546.077","OBJECT_TYPE":"PAYLOAD","SEMIMAJOR_AXIS":"6925.352","DECAY_DATE":null,"TIME_SYSTEM":"UTC","OBJECT_NAME":"STARLINK-1832","ECCENTRICITY":"0.00016460","FILE":"3129566","SITE":"AFETR","RA_OF_ASC_NODE":"46.6366","APOAPSIS":"548.357","GP_ID":"185582368","REV_AT_EPOCH":"5188"},{"INCLINATION":"53.0550","MEAN_ANOMALY":"254.1214","COUNTRY_CODE":"US","RCS_SIZE":"LARGE","CENTER_NAME":"EARTH","OBJECT_ID":"2020-074AU","BSTAR":"0.00008946700000","ELEMENT_SET_NO":"999","MEAN_MOTION_DOT":"0.00001052","TLE_LINE1":"1 46781U 20074AU  21269.68166401  .00001052  00000-0  89467-4 0  9997","EPOCH":"2021-09-26T16:21:35.770464","NORAD_CAT_ID":"46781","TLE_LINE2":"2 46781  53.0550  56.5669 0001576 105.9948 254.1214 15.06405573 51751","EPHEMERIS_TYPE":"0","CLASSIFICATION_TYPE":"U","PERIOD":"95.592","REV_AT_EPOCH":"5175","GP_ID":"185581616","SITE":"AFETR","FILE":"3129566","APOAPSIS":"548.288","RA_OF_ASC_NODE":"56.5669","TIME_SYSTEM":"UTC","OBJECT_NAME":"STARLINK-1834","ECCENTRICITY":"0.00015760","PERIAPSIS":"546.105","DECAY_DATE":null,"SEMIMAJOR_AXIS":"6925.331","OBJECT_TYPE":"PAYLOAD","ARG_OF_PERICENTER":"105.9948","REF_FRAME":"TEME","LAUNCH_DATE":"2020-10-24","MEAN_MOTION_DDOT":"0.0000000000000","MEAN_ELEMENT_THEORY":"SGP4","MEAN_MOTION":"15.06405573"},{"INCLINATION":"53.0570","BSTAR":"0.00002362500000","OBJECT_ID":"2020-074AV","RCS_SIZE":"LARGE","CENTER_NAME":"EARTH","MEAN_ANOMALY":"256.8222","COUNTRY_CODE":"US","TLE_LINE1":"1 46782U 20074AV  21269.65309908  .00000070  00000-0  23625-4 0  9999","MEAN_MOTION_DOT":"0.00000070","ELEMENT_SET_NO":"999","PERIOD":"95.592","TLE_LINE2":"2 46782  53.0570  46.7046 0001781 103.2966 256.8222 15.06394679 51889","CLASSIFICATION_TYPE":"U","EPHEMERIS_TYPE":"0","NORAD_CAT_ID":"46782","EPOCH":"2021-09-26T15:40:27.760512","GP_ID":"185581866","REV_AT_EPOCH":"5188","RA_OF_ASC_NODE":"46.7046","APOAPSIS":"548.463","FILE":"3129566","SITE":"AFETR","ECCENTRICITY":"0.00017810","TIME_SYSTEM":"UTC","OBJECT_NAME":"STARLINK-1835","OBJECT_TYPE":"PAYLOAD","SEMIMAJOR_AXIS":"6925.365","DECAY_DATE":null,"PERIAPSIS":"545.996","ARG_OF_PERICENTER":"103.2966","LAUNCH_DATE":"2020-10-24","REF_FRAME":"TEME","MEAN_MOTION_DDOT":"0.0000000000000","MEAN_MOTION":"15.06394679","MEAN_ELEMENT_THEORY":"SGP4"},{"SITE":"AFETR","FILE":"3129566","RA_OF_ASC_NODE":"46.6143","APOAPSIS":"548.094","GP_ID":"185582118","REV_AT_EPOCH":"5188","PERIAPSIS":"546.375","OBJECT_TYPE":"PAYLOAD","SEMIMAJOR_AXIS":"6925.369","DECAY_DATE":null,"OBJECT_NAME":"STARLINK-1851","TIME_SYSTEM":"UTC","ECCENTRICITY":"0.00012410","RCS_SIZE":"LARGE","CENTER_NAME":"EARTH","MEAN_ANOMALY":"250.0341","COUNTRY_CODE":"US","BSTAR":"0.00005518400000","OBJECT_ID":"2020-074AW","INCLINATION":"53.0575","NORAD_CAT_ID":"46783","EPOCH":"2021-09-26T16:01:41.347488","PERIOD":"95.593","CLASSIFICATION_TYPE":"U","TLE_LINE2":"2 46783  53.0575  46.6143 0001241 110.0782 250.0341 15.06393247 51883","EPHEMERIS_TYPE":"0","MEAN_MOTION_DOT":"0.00000541","ELEMENT_SET_NO":"999","TLE_LINE1":"1 46783U 20074AW  21269.66783967  .00000541  00000-0  55184-4 0  9990","REF_FRAME":"TEME","LAUNCH_DATE":"2020-10-24","MEAN_MOTION":"15.06393247","MEAN_ELEMENT_THEORY":"SGP4","MEAN_MOTION_DDOT":"0.0000000000000","ARG_OF_PERICENTER":"110.0782"}];
